{"type": "FeatureCollection", "features": [ {"type": "Feature", "properties": {"norad_id": 66443, "name": "STARLINK-35219", "group": "last-30-days", "lat": 36.36468215244724, "lon": -126.00440838338085, "alt_km": 410.417784576397, "timestamp": "2025-12-02T15:49:05.948447+00:00", "meta": {"OBJECT_NAME": "STARLINK-35219", "OBJECT_ID": "2025-259X", "EPOCH": "2025-12-02T06:00:02.999808", "MEAN_MOTION": 15.50564064, "ECCENTRICITY": 0.00018778, "INCLINATION": 42.9993, "RA_OF_ASC_NODE": 108.5914, "ARG_OF_PERICENTER": 263.4198, "MEAN_ANOMALY": 90.0099, "EPHEMERIS_TYPE": 0, "CLASSIFICATION_TYPE": "U", "NORAD_CAT_ID": 66443, "ELEMENT_SET_NO": 999, "REV_AT_EPOCH": 448, "BSTAR": -0.0005144036, "MEAN_MOTION_DOT": -0.00030387, "MEAN_MOTION_DDOT": 0}, "tle": {"line1": "1 66443U 25259X   25336.25003472 -.00030387  00000+0 -51440-3 0  9997", "line2": "2 66443  42.9993 108.5914 0001877 263.4198  90.0099 15.50564064  4484"}}, "geometry": {"type": "Point", "coordinates": [-126.00440838338085, 36.36468215244724]}}, {"type": "Feature", "properties": {"norad_id": 66444, "name": "STARLINK-35360", "group": "last-30-days", "lat": 33.84846700601897, "lon": -119.8478176382152, "alt_km": 410.39868968753217, "timestamp": "2025-12-02T15:49:05.948457+00:00", "meta": {"OBJECT_NAME": "STARLINK-35360", "OBJECT_ID": "2025-259Y", "EPOCH": "2025-12-02T06:00:02.999808", "MEAN_MOTION": 15.50466945, "ECCENTRICITY": 0.00016201, "INCLINATION": 42.9997, "RA_OF_ASC_NODE": 108.577, "ARG_OF_PERICENTER": 252.1824, "MEAN_ANOMALY": 106.9388, "EPHEMERIS_TYPE": 0, "CLASSIFICATION_TYPE": "U", "NORAD_CAT_ID": 66444, "ELEMENT_SET_NO": 999, "REV_AT_EPOCH": 459, "BSTAR": 0.0019340501, "MEAN_MOTION_DOT": 0.00114334, "MEAN_MOTION_DDOT": 0}, "tle": {"line1": "1 66444U 25259Y   25336.25003472  .00114334  00000+0  19341-2 0  9994", "line2": "2 66444  42.9997 108.5770 0001620 252.1824 106.9388 15.50466945  4595"}}, "geometry": {"type": "Point", "coordinates": [-119.8478176382152, 33.84846700601897]}}, {"type": "Feature", "properties": {"norad_id": 66445, "name": "STARLINK-34698", "group": "last-30-days", "lat": 35.59282160063397, "lon": -123.98957058013109, "alt_km": 410.13606252832506, "timestamp": "2025-12-02T15:49:05.948467+00:00", "meta": {"OBJECT_NAME": "STARLINK-34698", "OBJECT_ID": "2025-259Z", "EPOCH": "2025-12-02T06:00:02.999808", "MEAN_MOTION": 15.50461107, "ECCENTRICITY": 0.00015224, "INCLINATION": 42.9996, "RA_OF_ASC_NODE": 108.5868, "ARG_OF_PERICENTER": 251.5622, "MEAN_ANOMALY": 103.7387, "EPHEMERIS_TYPE": 0, "CLASSIFICATION_TYPE": "U", "NORAD_CAT_ID": 66445, "ELEMENT_SET_NO": 999, "REV_AT_EPOCH": 448, "BSTAR": 0.0019403037, "MEAN_MOTION_DOT": 0.00114686, "MEAN_MOTION_DDOT": 0}, "tle": {"line1": "1 66445U 25259Z   25336.25003472  .00114686  00000+0  19403-2 0  9994", "line2": "2 66445  42.9996 108.5868 0001522 251.5622 103.7387 15.50461107  4480"}}, "geometry": {"type": "Point", "coordinates": [-123.98957058013109, 35.59282160063397]}}, {"type": "Feature", "properties": {"norad_id": 66446, "name": "STARLINK-34986", "group": "last-30-days", "lat": 34.73980543783828, "lon": -121.90100512729155, "alt_km": 410.279303693168, "timestamp": "2025-12-02T15:49:05.948477+00:00", "meta": {"OBJECT_NAME": "STARLINK-34986", "OBJECT_ID": "2025-259AA", "EPOCH": "2025-12-02T06:00:02.999808", "MEAN_MOTION": 15.50465405, "ECCENTRICITY": 0.0001594, "INCLINATION": 42.9996, "RA_OF_ASC_NODE": 108.5815, "ARG_OF_PERICENTER": 253.2282, "MEAN_ANOMALY": 103.9745, "EPHEMERIS_TYPE": 0, "CLASSIFICATION_TYPE": "U", "NORAD_CAT_ID": 66446, "ELEMENT_SET_NO": 999, "REV_AT_EPOCH": 459, "BSTAR": 0.0020135966, "MEAN_MOTION_DOT": 0.00119117, "MEAN_MOTION_DDOT": 0}, "tle": {"line1": "1 66446U 25259AA  25336.25003472  .00119117  00000+0  20136-2 0  9994", "line2": "2 66446  42.9996 108.5815 0001594 253.2282 103.9745 15.50465405  4590"}}, "geometry": {"type": "Point", "coordinates": [-121.90100512729155, 34.73980543783828]}}, {"type": "Feature", "properties": {"norad_id": 66447, "name": "STARLINK-34851", "group": "last-30-days", "lat": 32.86936351992445, "lon": -117.72304903712114, "alt_km": 410.8554165869091, "timestamp": "2025-12-02T15:49:05.948490+00:00", "meta": {"OBJECT_NAME": "STARLINK-34851", "OBJECT_ID": "2025-259AB", "EPOCH": "2025-12-02T06:00:02.999808", "MEAN_MOTION": 15.50564834, "ECCENTRICITY": 0.00019785, "INCLINATION": 42.9996, "RA_OF_ASC_NODE": 108.5731, "ARG_OF_PERICENTER": 260.193, "MEAN_ANOMALY": 100.8948, "EPHEMERIS_TYPE": 0, "CLASSIFICATION_TYPE": "U", "NORAD_CAT_ID": 66447, "ELEMENT_SET_NO": 999, "REV_AT_EPOCH": 448, "BSTAR": -0.00039388704, "MEAN_MOTION_DOT": -0.0002337, "MEAN_MOTION_DDOT": 0}, "tle": {"line1": "1 66447U 25259AB  25336.25003472 -.00023370  00000+0 -39389-3 0  9993", "line2": "2 66447  42.9996 108.5731 0001978 260.1930 100.8948 15.50564834  4486"}}, "geometry": {"type": "Point", "coordinates": [-117.72304903712114, 32.86936351992445]}}, {"type": "Feature", "properties": {"norad_id": 66448, "name": "STARLINK-35355", "group": "last-30-days", "lat": 31.968624593579477, "lon": -115.87408004590598, "alt_km": 410.63966251268266, "timestamp": "2025-12-02T15:49:05.948499+00:00", "meta": {"OBJECT_NAME": "STARLINK-35355", "OBJECT_ID": "2025-259AC", "EPOCH": "2025-12-02T06:00:02.999808", "MEAN_MOTION": 15.50464952, "ECCENTRICITY": 0.00015999, "INCLINATION": 42.9996, "RA_OF_ASC_NODE": 108.5677, "ARG_OF_PERICENTER": 252.9067, "MEAN_ANOMALY": 110.0458, "EPHEMERIS_TYPE": 0, "CLASSIFICATION_TYPE": "U", "NORAD_CAT_ID": 66448, "ELEMENT_SET_NO": 999, "REV_AT_EPOCH": 459, "BSTAR": 0.0020247511, "MEAN_MOTION_DOT": 0.00119788, "MEAN_MOTION_DDOT": 0}, "tle": {"line1": "1 66448U 25259AC  25336.25003472  .00119788  00000+0  20248-2 0  9994", "line2": "2 66448  42.9996 108.5677 0001599 252.9067 110.0458 15.50464952  4596"}}, "geometry": {"type": "Point", "coordinates": [-115.87408004590598, 31.968624593579477]}}, {"type": "Feature", "properties": {"norad_id": 66449, "name": "STARLINK-34720", "group": "last-30-days", "lat": 30.98414468288306, "lon": -113.9519898647049, "alt_km": 410.6774750445311, "timestamp": "2025-12-02T15:49:05.948511+00:00", "meta": {"OBJECT_NAME": "STARLINK-34720", "OBJECT_ID": "2025-259AD", "EPOCH": "2025-12-02T06:00:02.999808", "MEAN_MOTION": 15.50463901, "ECCENTRICITY": 0.00015298, "INCLINATION": 42.9995, "RA_OF_ASC_NODE": 108.5627, "ARG_OF_PERICENTER": 249.0766, "MEAN_ANOMALY": 115.7886, "EPHEMERIS_TYPE": 0, "CLASSIFICATION_TYPE": "U", "NORAD_CAT_ID": 66449, "ELEMENT_SET_NO": 999, "REV_AT_EPOCH": 448, "BSTAR": 0.0021032186, "MEAN_MOTION_DOT": 0.00124514, "MEAN_MOTION_DDOT": 0}, "tle": {"line1": "1 66449U 25259AD  25336.25003472  .00124514  00000+0  21032-2 0  9990", "line2": "2 66449  42.9995 108.5627 0001529 249.0766 115.7886 15.50463901  4485"}}, "geometry": {"type": "Point", "coordinates": [-113.9519898647049, 30.98414468288306]}}, {"type": "Feature", "properties": {"norad_id": 66450, "name": "STARLINK-35334", "group": "last-30-days", "lat": 29.970937714048638, "lon": -112.06898013467952, "alt_km": 410.7838507271754, "timestamp": "2025-12-02T15:49:05.948521+00:00", "meta": {"OBJECT_NAME": "STARLINK-35334", "OBJECT_ID": "2025-259AE", "EPOCH": "2025-12-02T06:00:02.999808", "MEAN_MOTION": 15.50463298, "ECCENTRICITY": 0.00015588, "INCLINATION": 42.9996, "RA_OF_ASC_NODE": 108.5569, "ARG_OF_PERICENTER": 246.9288, "MEAN_ANOMALY": 119.8522, "EPHEMERIS_TYPE": 0, "CLASSIFICATION_TYPE": "U", "NORAD_CAT_ID": 66450, "ELEMENT_SET_NO": 999, "REV_AT_EPOCH": 459, "BSTAR": 0.0021377342, "MEAN_MOTION_DOT": 0.00126594, "MEAN_MOTION_DDOT": 0}, "tle": {"line1": "1 66450U 25259AE  25336.25003472  .00126594  00000+0  21377-2 0  9994", "line2": "2 66450  42.9996 108.5569 0001558 246.9288 119.8522 15.50463298  4593"}}, "geometry": {"type": "Point", "coordinates": [-112.06898013467952, 29.970937714048638]}}, {"type": "Feature", "properties": {"norad_id": 66454, "name": "VIASAT-3 F2", "group": "last-30-days", "lat": -1.4744528894160904, "lon": -81.97893435226487, "alt_km": 23197.396061763604, "timestamp": "2025-12-02T15:49:05.948533+00:00", "meta": {"OBJECT_NAME": "VIASAT-3 F2", "OBJECT_ID": "2025-261A", "EPOCH": "2025-12-01T18:36:31.725216", "MEAN_MOTION": 2.2815034, "ECCENTRICITY": 0.23416718, "INCLINATION": 5.5759, "RA_OF_ASC_NODE": 293.3594, "ARG_OF_PERICENTER": 183.7944, "MEAN_ANOMALY": 144.3606, "EPHEMERIS_TYPE": 0, "CLASSIFICATION_TYPE": "U", "NORAD_CAT_ID": 66454, "ELEMENT_SET_NO": 999, "REV_AT_EPOCH": 39, "BSTAR": 0, "MEAN_MOTION_DOT": -4.6e-07, "MEAN_MOTION_DDOT": 0}, "tle": {"line1": "1 66454U 25261A   25335.77536719 -.00000046  00000+0  00000+0 0  9993", "line2": "2 66454   5.5759 293.3594 2341671 183.7944 144.3606  2.28150340   394"}}, "geometry": {"type": "Point", "coordinates": [-81.97893435226487, -1.4744528894160904]}}, {"type": "Feature", "properties": {"norad_id": 66455, "name": "ATLAS 5 CENTAUR R/B", "group": "last-30-days", "lat": -2.2016699443588825, "lon": -88.19975506909412, "alt_km": 22812.232252906204, "timestamp": "2025-12-02T15:49:05.948545+00:00", "meta": {"OBJECT_NAME": "ATLAS 5 CENTAUR R/B", "OBJECT_ID": "2025-261B", "EPOCH": "2025-12-02T05:50:10.707936", "MEAN_MOTION": 2.28259428, "ECCENTRICITY": 0.23297418, "INCLINATION": 6.1597, "RA_OF_ASC_NODE": 292.6661, "ARG_OF_PERICENTER": 184.3734, "MEAN_ANOMALY": 159.3781, "EPHEMERIS_TYPE": 0, "CLASSIFICATION_TYPE": "U", "NORAD_CAT_ID": 66455, "ELEMENT_SET_NO": 999, "REV_AT_EPOCH": 40, "BSTAR": 0, "MEAN_MOTION_DOT": -4.8e-07, "MEAN_MOTION_DDOT": 0}, "tle": {"line1": "1 66455U 25261B   25336.24317949 -.00000048  00000+0  00000+0 0  9991", "line2": "2 66455   6.1597 292.6661 2329741 184.3734 159.3781  2.28259428   406"}}, "geometry": {"type": "Point", "coordinates": [-88.19975506909412, -2.2016699443588825]}}]}